OUTPOST MISSION 2
1 58334U 23174CG  25333.18558579  .00029573  00000+0  65297-3 0  9991
2 58334  97.4107  55.6076 0007993 123.9827 236.2182 15.43795841114830